[{"OBJECT_NAME":"KL-ALPHA B","OBJECT_ID":"2019-077B","EPOCH":"2026-03-09T22:53:20.656320","MEAN_MOTION":13.55991854,"ECCENTRICITY":0.00283835,"INCLINATION":88.9031,"RA_OF_ASC_NODE":231.1581,"ARG_OF_PERICENTER":80.1887,"MEAN_ANOMALY":280.247,"EPHEMERIS_TYPE":0,"CLASSIFICATION_TYPE":"U","NORAD_CAT_ID":44786,"ELEMENT_SET_NO":999,"REV_AT_EPOCH":31173,"BSTAR":0.00014525355,"MEAN_MOTION_DOT":1.14e-6,"MEAN_MOTION_DDOT":0},{"OBJECT_NAME":"CZ-6A DEB","OBJECT_ID":"2022-151GC","EPOCH":"2026-03-09T21:01:43.721472","MEAN_MOTION":13.89025497,"ECCENTRICITY":0.01494816,"INCLINATION":98.975,"RA_OF_ASC_NODE":41.3943,"ARG_OF_PERICENTER":354.9119,"MEAN_ANOMALY":5.0513,"EPHEMERIS_TYPE":0,"CLASSIFICATION_TYPE":"U","NORAD_CAT_ID":54452,"ELEMENT_SET_NO":999,"REV_AT_EPOCH":16826,"BSTAR":0.00021946252,"MEAN_MOTION_DOT":2.48e-6,"MEAN_MOTION_DDOT":0}]
